{"type": "FeatureCollection", "features": [ {"type": "Feature", "properties": {"norad_id": 42741, "name": "EUTELSAT 172B", "group": "eutelsat", "lat": 0.0006986127855303668, "lon": 51.47199008794188, "alt_km": 35786.156801329686, "timestamp": "2025-12-23T09:49:06.747758+00:00", "meta": {"OBJECT_NAME": "EUTELSAT 172B", "OBJECT_ID": "2017-029B", "EPOCH": "2025-12-22T20:49:47.887968", "MEAN_MOTION": 1.0027022, "ECCENTRICITY": 2.371e-05, "INCLINATION": 0.0213, "RA_OF_ASC_NODE": 108.0382, "ARG_OF_PERICENTER": 13.7152, "MEAN_ANOMALY": 94.3687, "EPHEMERIS_TYPE": 0, "CLASSIFICATION_TYPE": "U", "NORAD_CAT_ID": 42741, "ELEMENT_SET_NO": 999, "REV_AT_EPOCH": 3196, "BSTAR": 0, "MEAN_MOTION_DOT": 1.6e-07, "MEAN_MOTION_DDOT": 0}, "tle": {"line1": "1 42741U 17029B   25356.86791537  .00000016  00000+0  00000+0 0  9999", "line2": "2 42741   0.0213 108.0382 0000237  13.7152  94.3687  1.00270220 31969"}}, "geometry": {"type": "Point", "coordinates": [51.47199008794188, 0.0006986127855303668]}}, {"type": "Feature", "properties": {"norad_id": 44334, "name": "EUTELSAT 7C", "group": "eutelsat", "lat": 0.04680712913033984, "lon": -113.55783522290676, "alt_km": 35773.47760486564, "timestamp": "2025-12-23T09:49:06.747770+00:00", "meta": {"OBJECT_NAME": "EUTELSAT 7C", "OBJECT_ID": "2019-034B", "EPOCH": "2025-12-22T14:54:36.897696", "MEAN_MOTION": 1.00270406, "ECCENTRICITY": 0.00030955, "INCLINATION": 0.0727, "RA_OF_ASC_NODE": 179.9716, "ARG_OF_PERICENTER": 75.6441, "MEAN_ANOMALY": 66.4414, "EPHEMERIS_TYPE": 0, "CLASSIFICATION_TYPE": "U", "NORAD_CAT_ID": 44334, "ELEMENT_SET_NO": 999, "REV_AT_EPOCH": 506, "BSTAR": 0, "MEAN_MOTION_DOT": 7e-07, "MEAN_MOTION_DDOT": 0}, "tle": {"line1": "1 44334U 19034B   25356.62126039  .00000070  00000+0  00000+0 0  9990", "line2": "2 44334   0.0727 179.9716 0003095  75.6441  66.4414  1.00270406  5066"}}, "geometry": {"type": "Point", "coordinates": [-113.55783522290676, 0.04680712913033984]}}, {"type": "Feature", "properties": {"norad_id": 44624, "name": "EUTELSAT 5 WEST B", "group": "eutelsat", "lat": -0.0799774017499014, "lon": -125.54736606944674, "alt_km": 35775.8711788644, "timestamp": "2025-12-23T09:49:06.747782+00:00", "meta": {"OBJECT_NAME": "EUTELSAT 5 WEST B", "OBJECT_ID": "2019-067A", "EPOCH": "2025-12-22T18:16:40.050624", "MEAN_MOTION": 1.00271362, "ECCENTRICITY": 0.00030387, "INCLINATION": 0.0651, "RA_OF_ASC_NODE": 339.4383, "ARG_OF_PERICENTER": 291.6436, "MEAN_ANOMALY": 89.6499, "EPHEMERIS_TYPE": 0, "CLASSIFICATION_TYPE": "U", "NORAD_CAT_ID": 44624, "ELEMENT_SET_NO": 999, "REV_AT_EPOCH": 2266, "BSTAR": 0, "MEAN_MOTION_DOT": -2.1e-07, "MEAN_MOTION_DDOT": 0}, "tle": {"line1": "1 44624U 19067A   25356.76157466 -.00000021  00000+0  00000+0 0  9998", "line2": "2 44624   0.0651 339.4383 0003038 291.6436  89.6499  1.00271362 22665"}}, "geometry": {"type": "Point", "coordinates": [-125.54736606944674, -0.0799774017499014]}}, {"type": "Feature", "properties": {"norad_id": 45027, "name": "EUTELSAT KONNECT", "group": "eutelsat", "lat": 0.013341591065180613, "lon": -113.33509455894219, "alt_km": 35781.34379101935, "timestamp": "2025-12-23T09:49:06.747794+00:00", "meta": {"OBJECT_NAME": "EUTELSAT KONNECT", "OBJECT_ID": "2020-005B", "EPOCH": "2025-12-22T14:54:44.385984", "MEAN_MOTION": 1.00271247, "ECCENTRICITY": 0.00013494, "INCLINATION": 0.0714, "RA_OF_ASC_NODE": 94.3931, "ARG_OF_PERICENTER": 184.6433, "MEAN_ANOMALY": 43.2748, "EPHEMERIS_TYPE": 0, "CLASSIFICATION_TYPE": "U", "NORAD_CAT_ID": 45027, "ELEMENT_SET_NO": 999, "REV_AT_EPOCH": 2256, "BSTAR": 0, "MEAN_MOTION_DOT": 7.1e-07, "MEAN_MOTION_DDOT": 0}, "tle": {"line1": "1 45027U 20005B   25356.62134706  .00000071  00000+0  00000+0 0  9991", "line2": "2 45027   0.0714  94.3931 0001349 184.6433  43.2748  1.00271247 22564"}}, "geometry": {"type": "Point", "coordinates": [-113.33509455894219, 0.013341591065180613]}}, {"type": "Feature", "properties": {"norad_id": 49056, "name": "EUTELSAT QUANTUM", "group": "eutelsat", "lat": -0.033493295195190224, "lon": -72.81286096668978, "alt_km": 35771.067826252394, "timestamp": "2025-12-23T09:49:06.747805+00:00", "meta": {"OBJECT_NAME": "EUTELSAT QUANTUM", "OBJECT_ID": "2021-069B", "EPOCH": "2025-12-22T20:14:21.280704", "MEAN_MOTION": 1.00272877, "ECCENTRICITY": 0.00034839, "INCLINATION": 0.0098, "RA_OF_ASC_NODE": 3.3504, "ARG_OF_PERICENTER": 276.9315, "MEAN_ANOMALY": 162.6574, "EPHEMERIS_TYPE": 0, "CLASSIFICATION_TYPE": "U", "NORAD_CAT_ID": 49056, "ELEMENT_SET_NO": 999, "REV_AT_EPOCH": 1616, "BSTAR": 0, "MEAN_MOTION_DOT": 1.47e-06, "MEAN_MOTION_DDOT": 0}, "tle": {"line1": "1 49056U 21069B   25356.84330186  .00000147  00000+0  00000+0 0  9996", "line2": "2 49056   0.0098   3.3504 0003483 276.9315 162.6574  1.00272877 16168"}}, "geometry": {"type": "Point", "coordinates": [-72.81286096668978, -0.033493295195190224]}}, {"type": "Feature", "properties": {"norad_id": 53765, "name": "EUTELSAT KONNECT VHTS", "group": "eutelsat", "lat": 0.01671116661121799, "lon": -117.80724854557559, "alt_km": 35777.03301493503, "timestamp": "2025-12-23T09:49:06.747816+00:00", "meta": {"OBJECT_NAME": "EUTELSAT KONNECT VHTS", "OBJECT_ID": "2022-110A", "EPOCH": "2025-12-22T14:53:22.017408", "MEAN_MOTION": 1.00268229, "ECCENTRICITY": 0.00023717, "INCLINATION": 0.0613, "RA_OF_ASC_NODE": 98.5283, "ARG_OF_PERICENTER": 147.5122, "MEAN_ANOMALY": 71.4567, "EPHEMERIS_TYPE": 0, "CLASSIFICATION_TYPE": "U", "NORAD_CAT_ID": 53765, "ELEMENT_SET_NO": 999, "REV_AT_EPOCH": 505, "BSTAR": 0, "MEAN_MOTION_DOT": 3.8e-07, "MEAN_MOTION_DDOT": 0}, "tle": {"line1": "1 53765U 22110A   25356.62039372  .00000038  00000+0  00000+0 0  9994", "line2": "2 53765   0.0613  98.5283 0002371 147.5122  71.4567  1.00268229  5058"}}, "geometry": {"type": "Point", "coordinates": [-117.80724854557559, 0.01671116661121799]}}, {"type": "Feature", "properties": {"norad_id": 54048, "name": "EUTELSAT HOTBIRD 13F", "group": "eutelsat", "lat": -0.04812504529480429, "lon": -107.55351172232547, "alt_km": 35789.4489343175, "timestamp": "2025-12-23T09:49:06.747828+00:00", "meta": {"OBJECT_NAME": "EUTELSAT HOTBIRD 13F", "OBJECT_ID": "2022-134A", "EPOCH": "2025-12-21T21:49:07.084128", "MEAN_MOTION": 1.00271763, "ECCENTRICITY": 0.00022808, "INCLINATION": 0.0525, "RA_OF_ASC_NODE": 292.4073, "ARG_OF_PERICENTER": 71.4737, "MEAN_ANOMALY": 67.1177, "EPHEMERIS_TYPE": 0, "CLASSIFICATION_TYPE": "U", "NORAD_CAT_ID": 54048, "ELEMENT_SET_NO": 999, "REV_AT_EPOCH": 1160, "BSTAR": 0, "MEAN_MOTION_DOT": 1.09e-06, "MEAN_MOTION_DDOT": 0}, "tle": {"line1": "1 54048U 22134A   25355.90910977  .00000109  00000+0  00000+0 0  9993", "line2": "2 54048   0.0525 292.4073 0002280  71.4737  67.1177  1.00271763 11607"}}, "geometry": {"type": "Point", "coordinates": [-107.55351172232547, -0.04812504529480429]}}, {"type": "Feature", "properties": {"norad_id": 54225, "name": "EUTELSAT HOTBIRD 13G", "group": "eutelsat", "lat": -0.013506063886323501, "lon": -107.46139558331568, "alt_km": 35779.53099683777, "timestamp": "2025-12-23T09:49:06.747840+00:00", "meta": {"OBJECT_NAME": "EUTELSAT HOTBIRD 13G", "OBJECT_ID": "2022-146A", "EPOCH": "2025-12-22T04:02:38.705856", "MEAN_MOTION": 1.00287196, "ECCENTRICITY": 6.245e-05, "INCLINATION": 0.0535, "RA_OF_ASC_NODE": 228.1743, "ARG_OF_PERICENTER": 347.6873, "MEAN_ANOMALY": 308.7697, "EPHEMERIS_TYPE": 0, "CLASSIFICATION_TYPE": "U", "NORAD_CAT_ID": 54225, "ELEMENT_SET_NO": 999, "REV_AT_EPOCH": 569, "BSTAR": 0, "MEAN_MOTION_DOT": 1.11e-06, "MEAN_MOTION_DDOT": 0}, "tle": {"line1": "1 54225U 22146A   25356.16850354  .00000111  00000+0  00000+0 0  9997", "line2": "2 54225   0.0535 228.1743 0000624 347.6873 308.7697  1.00287196  5694"}}, "geometry": {"type": "Point", "coordinates": [-107.46139558331568, -0.013506063886323501]}}, {"type": "Feature", "properties": {"norad_id": 54259, "name": "EUTELSAT 10B", "group": "eutelsat", "lat": 0.006397670950544758, "lon": -110.50020028888962, "alt_km": 35788.47286503459, "timestamp": "2025-12-23T09:49:06.747851+00:00", "meta": {"OBJECT_NAME": "EUTELSAT 10B", "OBJECT_ID": "2022-157A", "EPOCH": "2025-12-22T21:07:38.532576", "MEAN_MOTION": 1.00272796, "ECCENTRICITY": 7.321e-05, "INCLINATION": 0.0606, "RA_OF_ASC_NODE": 96.1214, "ARG_OF_PERICENTER": 2.1713, "MEAN_ANOMALY": 320.3187, "EPHEMERIS_TYPE": 0, "CLASSIFICATION_TYPE": "U", "NORAD_CAT_ID": 54259, "ELEMENT_SET_NO": 999, "REV_AT_EPOCH": 1125, "BSTAR": 0, "MEAN_MOTION_DOT": 9e-07, "MEAN_MOTION_DDOT": 0}, "tle": {"line1": "1 54259U 22157A   25356.88030709  .00000090  00000+0  00000+0 0  9995", "line2": "2 54259   0.0606  96.1214 0000732   2.1713 320.3187  1.00272796 11255"}}, "geometry": {"type": "Point", "coordinates": [-110.50020028888962, 0.006397670950544758]}}, {"type": "Feature", "properties": {"norad_id": 59346, "name": "EUTELSAT 36D", "group": "eutelsat", "lat": -0.042999682754650694, "lon": -84.66980930884462, "alt_km": 35785.95737611942, "timestamp": "2025-12-23T09:49:06.747863+00:00", "meta": {"OBJECT_NAME": "EUTELSAT 36D", "OBJECT_ID": "2024-059A", "EPOCH": "2025-12-22T21:53:41.767872", "MEAN_MOTION": 1.00272062, "ECCENTRICITY": 3.385e-05, "INCLINATION": 0.0224, "RA_OF_ASC_NODE": 32.3182, "ARG_OF_PERICENTER": 333.4824, "MEAN_ANOMALY": 90.1956, "EPHEMERIS_TYPE": 0, "CLASSIFICATION_TYPE": "U", "NORAD_CAT_ID": 59346, "ELEMENT_SET_NO": 999, "REV_AT_EPOCH": 638, "BSTAR": 0, "MEAN_MOTION_DOT": 0, "MEAN_MOTION_DDOT": 0}, "tle": {"line1": "1 59346U 24059A   25356.91228898  .00000000  00000+0  00000+0 0  9993", "line2": "2 59346   0.0224  32.3182 0000338 333.4824  90.1956  1.00272062  6384"}}, "geometry": {"type": "Point", "coordinates": [-84.66980930884462, -0.042999682754650694]}}]}